{"type": "FeatureCollection", "features": [ {"type": "Feature", "properties": {"norad_id": 34570, "name": "COSMOS 2251 DEB", "group": "cosmos-2251-debris", "lat": -25.27437384142186, "lon": 49.481746117269395, "alt_km": 925.0736657839834, "timestamp": "2025-12-10T18:57:00.459706+00:00", "meta": {"OBJECT_NAME": "COSMOS 2251 DEB", "OBJECT_ID": "1993-036VG", "EPOCH": "2025-12-10T10:15:47.270016", "MEAN_MOTION": 13.99813899, "ECCENTRICITY": 0.0190208, "INCLINATION": 73.9575, "RA_OF_ASC_NODE": 222.3032, "ARG_OF_PERICENTER": 105.3156, "MEAN_ANOMALY": 75.4929, "EPHEMERIS_TYPE": 0, "CLASSIFICATION_TYPE": "U", "NORAD_CAT_ID": 34570, "ELEMENT_SET_NO": 999, "REV_AT_EPOCH": 85568, "BSTAR": 0.00064941, "MEAN_MOTION_DOT": 1.09e-05, "MEAN_MOTION_DDOT": 0}, "tle": {"line1": "1 34570U 93036VG  25344.42763044  .00001090  00000+0  64941-3 0  9994", "line2": "2 34570  73.9575 222.3032 0190208 105.3156  75.4929 13.99813899855680"}}, "geometry": {"type": "Point", "coordinates": [49.481746117269395, -25.27437384142186]}}, {"type": "Feature", "properties": {"norad_id": 34571, "name": "COSMOS 2251 DEB", "group": "cosmos-2251-debris", "lat": 65.12024385805348, "lon": -135.8048916009657, "alt_km": 764.241354756301, "timestamp": "2025-12-10T18:57:00.459716+00:00", "meta": {"OBJECT_NAME": "COSMOS 2251 DEB", "OBJECT_ID": "1993-036VH", "EPOCH": "2025-12-09T06:09:38.106720", "MEAN_MOTION": 14.48721172, "ECCENTRICITY": 0.0066557, "INCLINATION": 74.0386, "RA_OF_ASC_NODE": 188.9585, "ARG_OF_PERICENTER": 224.7562, "MEAN_ANOMALY": 134.8218, "EPHEMERIS_TYPE": 0, "CLASSIFICATION_TYPE": "U", "NORAD_CAT_ID": 34571, "ELEMENT_SET_NO": 999, "REV_AT_EPOCH": 87243, "BSTAR": 0.0025604, "MEAN_MOTION_DOT": 9.914e-05, "MEAN_MOTION_DDOT": 0}, "tle": {"line1": "1 34571U 93036VH  25343.25669105  .00009914  00000+0  25604-2 0  9993", "line2": "2 34571  74.0386 188.9585 0066557 224.7562 134.8218 14.48721172872439"}}, "geometry": {"type": "Point", "coordinates": [-135.8048916009657, 65.12024385805348]}}, {"type": "Feature", "properties": {"norad_id": 34572, "name": "COSMOS 2251 DEB", "group": "cosmos-2251-debris", "lat": -67.66545445536339, "lon": 74.91543835972419, "alt_km": 734.4742422585177, "timestamp": "2025-12-10T18:57:00.459726+00:00", "meta": {"OBJECT_NAME": "COSMOS 2251 DEB", "OBJECT_ID": "1993-036VJ", "EPOCH": "2025-12-10T09:40:05.680128", "MEAN_MOTION": 14.49931847, "ECCENTRICITY": 0.0063164, "INCLINATION": 74.011, "RA_OF_ASC_NODE": 119.902, "ARG_OF_PERICENTER": 194.0511, "MEAN_ANOMALY": 233.1496, "EPHEMERIS_TYPE": 0, "CLASSIFICATION_TYPE": "U", "NORAD_CAT_ID": 34572, "ELEMENT_SET_NO": 999, "REV_AT_EPOCH": 87344, "BSTAR": 0.004672, "MEAN_MOTION_DOT": 0.00018558, "MEAN_MOTION_DDOT": 0}, "tle": {"line1": "1 34572U 93036VJ  25344.40284352  .00018558  00000+0  46720-2 0  9995", "line2": "2 34572  74.0110 119.9020 0063164 194.0511 233.1496 14.49931847873443"}}, "geometry": {"type": "Point", "coordinates": [74.91543835972419, -67.66545445536339]}}, {"type": "Feature", "properties": {"norad_id": 34574, "name": "COSMOS 2251 DEB", "group": "cosmos-2251-debris", "lat": 26.192555594965974, "lon": 54.987475184212855, "alt_km": 622.4123447978291, "timestamp": "2025-12-10T18:57:00.459737+00:00", "meta": {"OBJECT_NAME": "COSMOS 2251 DEB", "OBJECT_ID": "1993-036VL", "EPOCH": "2025-12-10T10:43:39.407232", "MEAN_MOTION": 14.70563466, "ECCENTRICITY": 0.0066867, "INCLINATION": 74.069, "RA_OF_ASC_NODE": 47.5738, "ARG_OF_PERICENTER": 69.3099, "MEAN_ANOMALY": 305.6088, "EPHEMERIS_TYPE": 0, "CLASSIFICATION_TYPE": "U", "NORAD_CAT_ID": 34574, "ELEMENT_SET_NO": 999, "REV_AT_EPOCH": 88745, "BSTAR": 0.0013396, "MEAN_MOTION_DOT": 8.403e-05, "MEAN_MOTION_DDOT": 0}, "tle": {"line1": "1 34574U 93036VL  25344.44698388  .00008403  00000+0  13396-2 0  9990", "line2": "2 34574  74.0690  47.5738 0066867  69.3099 305.6088 14.70563466887458"}}, "geometry": {"type": "Point", "coordinates": [54.987475184212855, 26.192555594965974]}}, {"type": "Feature", "properties": {"norad_id": 34576, "name": "COSMOS 2251 DEB", "group": "cosmos-2251-debris", "lat": 68.88590270276224, "lon": -85.9604498201976, "alt_km": 706.6467218434318, "timestamp": "2025-12-10T18:57:00.459749+00:00", "meta": {"OBJECT_NAME": "COSMOS 2251 DEB", "OBJECT_ID": "1993-036VN", "EPOCH": "2025-12-10T12:08:06.952992", "MEAN_MOTION": 14.55396957, "ECCENTRICITY": 0.0008001, "INCLINATION": 74.0338, "RA_OF_ASC_NODE": 142.4288, "ARG_OF_PERICENTER": 277.3537, "MEAN_ANOMALY": 139.4789, "EPHEMERIS_TYPE": 0, "CLASSIFICATION_TYPE": "U", "NORAD_CAT_ID": 34576, "ELEMENT_SET_NO": 999, "REV_AT_EPOCH": 88434, "BSTAR": 0.0013441, "MEAN_MOTION_DOT": 5.817e-05, "MEAN_MOTION_DDOT": 0}, "tle": {"line1": "1 34576U 93036VN  25344.50563603  .00005817  00000+0  13441-2 0  9997", "line2": "2 34576  74.0338 142.4288 0008001 277.3537 139.4789 14.55396957884346"}}, "geometry": {"type": "Point", "coordinates": [-85.9604498201976, 68.88590270276224]}}, {"type": "Feature", "properties": {"norad_id": 34579, "name": "COSMOS 2251 DEB", "group": "cosmos-2251-debris", "lat": 31.789669040144716, "lon": -122.26856077325574, "alt_km": 741.1713307107775, "timestamp": "2025-12-10T18:57:00.459759+00:00", "meta": {"OBJECT_NAME": "COSMOS 2251 DEB", "OBJECT_ID": "1993-036VR", "EPOCH": "2025-12-10T09:22:18.253920", "MEAN_MOTION": 14.45297716, "ECCENTRICITY": 0.0027577, "INCLINATION": 74.0529, "RA_OF_ASC_NODE": 228.2666, "ARG_OF_PERICENTER": 297.2651, "MEAN_ANOMALY": 180.0349, "EPHEMERIS_TYPE": 0, "CLASSIFICATION_TYPE": "U", "NORAD_CAT_ID": 34579, "ELEMENT_SET_NO": 999, "REV_AT_EPOCH": 88140, "BSTAR": 0.00062617, "MEAN_MOTION_DOT": 2.182e-05, "MEAN_MOTION_DDOT": 0}, "tle": {"line1": "1 34579U 93036VR  25344.39048905  .00002182  00000+0  62617-3 0  9992", "line2": "2 34579  74.0529 228.2666 0027577 297.2651 180.0349 14.45297716881401"}}, "geometry": {"type": "Point", "coordinates": [-122.26856077325574, 31.789669040144716]}}, {"type": "Feature", "properties": {"norad_id": 34582, "name": "COSMOS 2251 DEB", "group": "cosmos-2251-debris", "lat": -14.761349447914712, "lon": -88.32651840685953, "alt_km": 726.4953340716265, "timestamp": "2025-12-10T18:57:00.459768+00:00", "meta": {"OBJECT_NAME": "COSMOS 2251 DEB", "OBJECT_ID": "1993-036VU", "EPOCH": "2025-12-10T10:42:10.859328", "MEAN_MOTION": 14.43304604, "ECCENTRICITY": 0.0047733, "INCLINATION": 74.02, "RA_OF_ASC_NODE": 276.6424, "ARG_OF_PERICENTER": 27.2931, "MEAN_ANOMALY": 333.0718, "EPHEMERIS_TYPE": 0, "CLASSIFICATION_TYPE": "U", "NORAD_CAT_ID": 34582, "ELEMENT_SET_NO": 999, "REV_AT_EPOCH": 87914, "BSTAR": 0.0012049, "MEAN_MOTION_DOT": 4.092e-05, "MEAN_MOTION_DDOT": 0}, "tle": {"line1": "1 34582U 93036VU  25344.44595902  .00004092  00000+0  12049-2 0  9991", "line2": "2 34582  74.0200 276.6424 0047733  27.2931 333.0718 14.43304604879149"}}, "geometry": {"type": "Point", "coordinates": [-88.32651840685953, -14.761349447914712]}}, {"type": "Feature", "properties": {"norad_id": 34588, "name": "COSMOS 2251 DEB", "group": "cosmos-2251-debris", "lat": 46.73926117378075, "lon": -70.43143558207655, "alt_km": 746.0929915676816, "timestamp": "2025-12-10T18:57:00.459778+00:00", "meta": {"OBJECT_NAME": "COSMOS 2251 DEB", "OBJECT_ID": "1993-036WA", "EPOCH": "2025-12-10T06:06:05.980032", "MEAN_MOTION": 14.42009503, "ECCENTRICITY": 0.0019129, "INCLINATION": 74.0439, "RA_OF_ASC_NODE": 272.8608, "ARG_OF_PERICENTER": 325.7964, "MEAN_ANOMALY": 185.2763, "EPHEMERIS_TYPE": 0, "CLASSIFICATION_TYPE": "U", "NORAD_CAT_ID": 34588, "ELEMENT_SET_NO": 999, "REV_AT_EPOCH": 87914, "BSTAR": 0.0007832, "MEAN_MOTION_DOT": 2.55e-05, "MEAN_MOTION_DDOT": 0}, "tle": {"line1": "1 34588U 93036WA  25344.25423588  .00002550  00000+0  78320-3 0  9998", "line2": "2 34588  74.0439 272.8608 0019129 325.7964 185.2763 14.42009503879147"}}, "geometry": {"type": "Point", "coordinates": [-70.43143558207655, 46.73926117378075]}}, {"type": "Feature", "properties": {"norad_id": 34589, "name": "COSMOS 2251 DEB", "group": "cosmos-2251-debris", "lat": -69.92862478545281, "lon": 7.25127877579224, "alt_km": 915.7659305986836, "timestamp": "2025-12-10T18:57:00.459788+00:00", "meta": {"OBJECT_NAME": "COSMOS 2251 DEB", "OBJECT_ID": "1993-036WB", "EPOCH": "2025-12-09T12:13:17.410656", "MEAN_MOTION": 13.8604857, "ECCENTRICITY": 0.02517935, "INCLINATION": 73.9254, "RA_OF_ASC_NODE": 61.5361, "ARG_OF_PERICENTER": 5.5277, "MEAN_ANOMALY": 13.2328, "EPHEMERIS_TYPE": 0, "CLASSIFICATION_TYPE": "U", "NORAD_CAT_ID": 34589, "ELEMENT_SET_NO": 999, "REV_AT_EPOCH": 84667, "BSTAR": 0.00037001793, "MEAN_MOTION_DOT": 5.22e-06, "MEAN_MOTION_DDOT": 0}, "tle": {"line1": "1 34589U 93036WB  25343.50922929  .00000522  00000+0  37002-3 0  9998", "line2": "2 34589  73.9254  61.5361 0251793   5.5277  13.2328 13.86048570846678"}}, "geometry": {"type": "Point", "coordinates": [7.25127877579224, -69.92862478545281]}}, {"type": "Feature", "properties": {"norad_id": 34590, "name": "COSMOS 2251 DEB", "group": "cosmos-2251-debris", "lat": 30.685969973459077, "lon": 136.4647130932838, "alt_km": 677.6988522034717, "timestamp": "2025-12-10T18:57:00.459798+00:00", "meta": {"OBJECT_NAME": "COSMOS 2251 DEB", "OBJECT_ID": "1993-036WC", "EPOCH": "2025-12-10T08:56:51.819072", "MEAN_MOTION": 14.54821545, "ECCENTRICITY": 0.0067961, "INCLINATION": 74.0436, "RA_OF_ASC_NODE": 327.0281, "ARG_OF_PERICENTER": 97.3317, "MEAN_ANOMALY": 28.045, "EPHEMERIS_TYPE": 0, "CLASSIFICATION_TYPE": "U", "NORAD_CAT_ID": 34590, "ELEMENT_SET_NO": 999, "REV_AT_EPOCH": 89086, "BSTAR": 0.00020825, "MEAN_MOTION_DOT": 8.92e-06, "MEAN_MOTION_DDOT": 0}, "tle": {"line1": "1 34590U 93036WC  25344.37282198  .00000892  00000+0  20825-3 0  9998", "line2": "2 34590  74.0436 327.0281 0067961  97.3317  28.0450 14.54821545890868"}}, "geometry": {"type": "Point", "coordinates": [136.4647130932838, 30.685969973459077]}}]}